[
  {
    "name": "ONEWEB-0387",
    "noradId": "49313",
    "line1": "1 49313U 21090AL  26186.24629238  .00000096  00000+0  20531-3 0  9999",
    "line2": "2 49313  87.9184 270.8530 0002152  89.9682 270.1698 13.20773708232206"
  },
  {
    "name": "ONEWEB-0388",
    "noradId": "49314",
    "line1": "1 49314U 21090AM  26186.30060699 -.00000012  00000+0 -62683-4 0  9992",
    "line2": "2 49314  87.9182 301.3619 0001847  98.2595 261.8747 13.19726198228801"
  },
  {
    "name": "ONEWEB-0389",
    "noradId": "50469",
    "line1": "1 50469U 21132A   26186.49933131  .00000015  00000+0  57963-5 0  9999",
    "line2": "2 50469  87.9138   2.2244 0001890  79.8161 280.3184 13.17650276220497"
  },
  {
    "name": "ONEWEB-0390",
    "noradId": "50470",
    "line1": "1 50470U 21132B   26186.50101881  .00000076  00000+0  16340-3 0  9991",
    "line2": "2 50470  87.9138   2.2251 0002081  91.7148 268.4222 13.17650373220496"
  },
  {
    "name": "ONEWEB-0391",
    "noradId": "50471",
    "line1": "1 50471U 21132C   26186.04709029 -.00000029  00000+0 -10713-3 0  9997",
    "line2": "2 50471  87.9137   2.3253 0002383  72.7808 287.3584 13.17649952220432"
  },
  {
    "name": "ONEWEB-0392",
    "noradId": "50472",
    "line1": "1 50472U 21132D   26186.45715038  .00000027  00000+0  36802-4 0  9994",
    "line2": "2 50472  87.9146   2.2135 0001962  79.3627 280.7725 13.17649706220526"
  },
  {
    "name": "ONEWEB-0393",
    "noradId": "50473",
    "line1": "1 50473U 21132E   26186.43266888  .00000034  00000+0  54667-4 0  9994",
    "line2": "2 50473  87.9137   2.2340 0001914  85.0257 275.1093 13.17647530220513"
  },
  {
    "name": "ONEWEB-0394",
    "noradId": "50474",
    "line1": "1 50474U 21132F   26186.30845723 -.00000324  00000+0 -85505-3 0  9990",
    "line2": "2 50474  87.9187 331.8379 0001722  93.3572 266.7757 13.18685540223982"
  },
  {
    "name": "ONEWEB-0395",
    "noradId": "50475",
    "line1": "1 50475U 21132G   26186.47826142 -.00000521  00000+0 -15064-2 0  9994",
    "line2": "2 50475  87.8878  17.4246 0002091  86.5663 273.5704 13.11416491218111"
  },
  {
    "name": "ONEWEB-0396",
    "noradId": "50476",
    "line1": "1 50476U 21132H   26185.92234987  .00000037  00000+0  60001-4 0  9997",
    "line2": "2 50476  87.9188 331.9276 0001767  91.2768 268.8566 13.18686011223979"
  },
  {
    "name": "ONEWEB-0397",
    "noradId": "50477",
    "line1": "1 50477U 21132J   26186.31690574  .00000026  00000+0  33682-4 0  9993",
    "line2": "2 50477  87.9188 331.8491 0001637  91.5841 268.5479 13.18686077224006"
  },
  {
    "name": "ONEWEB-0398",
    "noradId": "50478",
    "line1": "1 50478U 21132K   26186.06457851  .00000482  00000+0  13228-2 0  9993",
    "line2": "2 50478  87.8887  17.4990 0002157  91.0472 269.0903 13.11415613217959"
  },
  {
    "name": "ONEWEB-0399",
    "noradId": "50479",
    "line1": "1 50479U 21132L   26186.50879506  .00000291  00000+0  78629-3 0  9993",
    "line2": "2 50479  87.8889  17.4218 0001770  72.9778 287.1544 13.11417505218003"
  },
  {
    "name": "ONEWEB-0400",
    "noradId": "50480",
    "line1": "1 50480U 21132M   26185.91560405  .00000052  00000+0  98247-4 0  9998",
    "line2": "2 50480  87.9186 331.9187 0002019  97.3601 262.7760 13.18686471223943"
  },
  {
    "name": "ONEWEB-0401",
    "noradId": "50481",
    "line1": "1 50481U 21132N   26186.34051493  .00000075  00000+0  15805-3 0  9992",
    "line2": "2 50481  87.9189 331.8315 0001628  99.9425 260.1891 13.18686204224005"
  },
  {
    "name": "ONEWEB-0402",
    "noradId": "50482",
    "line1": "1 50482U 21132P   26186.37929262 -.00000041  00000+0 -13628-3 0  9990",
    "line2": "2 50482  87.9188 331.8129 0001377 100.6680 259.4607 13.18686574224031"
  }
]