{"fetched_at":"2026-07-06T08:46:38.495Z","source":"https://celestrak.org/NORAD/elements/gp.php?GROUP=oneweb&FORMAT=JSON","constellation":"oneweb","records":[{"OBJECT_NAME":"ONEWEB-0387","OBJECT_ID":"2021-090AL","EPOCH":"2026-07-05T05:54:39.661632","CLASSIFICATION_TYPE":"U","MEAN_MOTION":13.20773708,"ECCENTRICITY":0.0002152,"INCLINATION":87.9184,"RA_OF_ASC_NODE":270.853,"ARG_OF_PERICENTER":89.9682,"MEAN_ANOMALY":270.1698,"EPHEMERIS_TYPE":0,"NORAD_CAT_ID":49313,"ELEMENT_SET_NO":999,"REV_AT_EPOCH":23220,"BSTAR":0.00020531,"MEAN_MOTION_DOT":9.6e-7,"MEAN_MOTION_DDOT":0},{"OBJECT_NAME":"ONEWEB-0388","OBJECT_ID":"2021-090AM","EPOCH":"2026-07-05T07:12:52.443936","CLASSIFICATION_TYPE":"U","MEAN_MOTION":13.19726198,"ECCENTRICITY":0.0001847,"INCLINATION":87.9182,"RA_OF_ASC_NODE":301.3619,"ARG_OF_PERICENTER":98.2595,"MEAN_ANOMALY":261.8747,"EPHEMERIS_TYPE":0,"NORAD_CAT_ID":49314,"ELEMENT_SET_NO":999,"REV_AT_EPOCH":22880,"BSTAR":-0.000062683,"MEAN_MOTION_DOT":-1.2e-7,"MEAN_MOTION_DDOT":0},{"OBJECT_NAME":"ONEWEB-0389","OBJECT_ID":"2021-132A","EPOCH":"2026-07-05T11:59:02.225184","CLASSIFICATION_TYPE":"U","MEAN_MOTION":13.17650276,"ECCENTRICITY":0.000189,"INCLINATION":87.9138,"RA_OF_ASC_NODE":2.2244,"ARG_OF_PERICENTER":79.8161,"MEAN_ANOMALY":280.3184,"EPHEMERIS_TYPE":0,"NORAD_CAT_ID":50469,"ELEMENT_SET_NO":999,"REV_AT_EPOCH":22049,"BSTAR":0.0000057963,"MEAN_MOTION_DOT":1.5e-7,"MEAN_MOTION_DDOT":0},{"OBJECT_NAME":"ONEWEB-0390","OBJECT_ID":"2021-132B","EPOCH":"2026-07-05T12:01:28.025184","CLASSIFICATION_TYPE":"U","MEAN_MOTION":13.17650373,"ECCENTRICITY":0.0002081,"INCLINATION":87.9138,"RA_OF_ASC_NODE":2.2251,"ARG_OF_PERICENTER":91.7148,"MEAN_ANOMALY":268.4222,"EPHEMERIS_TYPE":0,"NORAD_CAT_ID":50470,"ELEMENT_SET_NO":999,"REV_AT_EPOCH":22049,"BSTAR":0.0001634,"MEAN_MOTION_DOT":7.6e-7,"MEAN_MOTION_DDOT":0},{"OBJECT_NAME":"ONEWEB-0391","OBJECT_ID":"2021-132C","EPOCH":"2026-07-05T01:07:48.601056","CLASSIFICATION_TYPE":"U","MEAN_MOTION":13.17649952,"ECCENTRICITY":0.0002383,"INCLINATION":87.9137,"RA_OF_ASC_NODE":2.3253,"ARG_OF_PERICENTER":72.7808,"MEAN_ANOMALY":287.3584,"EPHEMERIS_TYPE":0,"NORAD_CAT_ID":50471,"ELEMENT_SET_NO":999,"REV_AT_EPOCH":22043,"BSTAR":-0.00010713,"MEAN_MOTION_DOT":-2.9e-7,"MEAN_MOTION_DDOT":0},{"OBJECT_NAME":"ONEWEB-0392","OBJECT_ID":"2021-132D","EPOCH":"2026-07-05T10:58:17.792832","CLASSIFICATION_TYPE":"U","MEAN_MOTION":13.17649706,"ECCENTRICITY":0.0001962,"INCLINATION":87.9146,"RA_OF_ASC_NODE":2.2135,"ARG_OF_PERICENTER":79.3627,"MEAN_ANOMALY":280.7725,"EPHEMERIS_TYPE":0,"NORAD_CAT_ID":50472,"ELEMENT_SET_NO":999,"REV_AT_EPOCH":22052,"BSTAR":0.000036802,"MEAN_MOTION_DOT":2.7e-7,"MEAN_MOTION_DDOT":0},{"OBJECT_NAME":"ONEWEB-0393","OBJECT_ID":"2021-132E","EPOCH":"2026-07-05T10:23:02.591232","CLASSIFICATION_TYPE":"U","MEAN_MOTION":13.1764753,"ECCENTRICITY":0.0001914,"INCLINATION":87.9137,"RA_OF_ASC_NODE":2.234,"ARG_OF_PERICENTER":85.0257,"MEAN_ANOMALY":275.1093,"EPHEMERIS_TYPE":0,"NORAD_CAT_ID":50473,"ELEMENT_SET_NO":999,"REV_AT_EPOCH":22051,"BSTAR":0.000054667,"MEAN_MOTION_DOT":3.4e-7,"MEAN_MOTION_DDOT":0},{"OBJECT_NAME":"ONEWEB-0394","OBJECT_ID":"2021-132F","EPOCH":"2026-07-05T07:24:10.704672","CLASSIFICATION_TYPE":"U","MEAN_MOTION":13.1868554,"ECCENTRICITY":0.0001722,"INCLINATION":87.9187,"RA_OF_ASC_NODE":331.8379,"ARG_OF_PERICENTER":93.3572,"MEAN_ANOMALY":266.7757,"EPHEMERIS_TYPE":0,"NORAD_CAT_ID":50474,"ELEMENT_SET_NO":999,"REV_AT_EPOCH":22398,"BSTAR":-0.00085505,"MEAN_MOTION_DOT":-0.00000324,"MEAN_MOTION_DDOT":0},{"OBJECT_NAME":"ONEWEB-0395","OBJECT_ID":"2021-132G","EPOCH":"2026-07-05T11:28:41.786688","CLASSIFICATION_TYPE":"U","MEAN_MOTION":13.11416491,"ECCENTRICITY":0.0002091,"INCLINATION":87.8878,"RA_OF_ASC_NODE":17.4246,"ARG_OF_PERICENTER":86.5663,"MEAN_ANOMALY":273.5704,"EPHEMERIS_TYPE":0,"NORAD_CAT_ID":50475,"ELEMENT_SET_NO":999,"REV_AT_EPOCH":21811,"BSTAR":-0.0015064,"MEAN_MOTION_DOT":-0.00000521,"MEAN_MOTION_DDOT":0},{"OBJECT_NAME":"ONEWEB-0396","OBJECT_ID":"2021-132H","EPOCH":"2026-07-04T22:08:11.028768","CLASSIFICATION_TYPE":"U","MEAN_MOTION":13.18686011,"ECCENTRICITY":0.0001767,"INCLINATION":87.9188,"RA_OF_ASC_NODE":331.9276,"ARG_OF_PERICENTER":91.2768,"MEAN_ANOMALY":268.8566,"EPHEMERIS_TYPE":0,"NORAD_CAT_ID":50476,"ELEMENT_SET_NO":999,"REV_AT_EPOCH":22397,"BSTAR":0.000060001,"MEAN_MOTION_DOT":3.7e-7,"MEAN_MOTION_DDOT":0},{"OBJECT_NAME":"ONEWEB-0397","OBJECT_ID":"2021-132J","EPOCH":"2026-07-05T07:36:20.655936","CLASSIFICATION_TYPE":"U","MEAN_MOTION":13.18686077,"ECCENTRICITY":0.0001637,"INCLINATION":87.9188,"RA_OF_ASC_NODE":331.8491,"ARG_OF_PERICENTER":91.5841,"MEAN_ANOMALY":268.5479,"EPHEMERIS_TYPE":0,"NORAD_CAT_ID":50477,"ELEMENT_SET_NO":999,"REV_AT_EPOCH":22400,"BSTAR":0.000033682,"MEAN_MOTION_DOT":2.6e-7,"MEAN_MOTION_DDOT":0},{"OBJECT_NAME":"ONEWEB-0398","OBJECT_ID":"2021-132K","EPOCH":"2026-07-05T01:32:59.583264","CLASSIFICATION_TYPE":"U","MEAN_MOTION":13.11415613,"ECCENTRICITY":0.0002157,"INCLINATION":87.8887,"RA_OF_ASC_NODE":17.499,"ARG_OF_PERICENTER":91.0472,"MEAN_ANOMALY":269.0903,"EPHEMERIS_TYPE":0,"NORAD_CAT_ID":50478,"ELEMENT_SET_NO":999,"REV_AT_EPOCH":21795,"BSTAR":0.0013228,"MEAN_MOTION_DOT":0.00000482,"MEAN_MOTION_DDOT":0},{"OBJECT_NAME":"ONEWEB-0399","OBJECT_ID":"2021-132L","EPOCH":"2026-07-05T12:12:39.893184","CLASSIFICATION_TYPE":"U","MEAN_MOTION":13.11417505,"ECCENTRICITY":0.000177,"INCLINATION":87.8889,"RA_OF_ASC_NODE":17.4218,"ARG_OF_PERICENTER":72.9778,"MEAN_ANOMALY":287.1544,"EPHEMERIS_TYPE":0,"NORAD_CAT_ID":50479,"ELEMENT_SET_NO":999,"REV_AT_EPOCH":21800,"BSTAR":0.00078629,"MEAN_MOTION_DOT":0.00000291,"MEAN_MOTION_DDOT":0},{"OBJECT_NAME":"ONEWEB-0400","OBJECT_ID":"2021-132M","EPOCH":"2026-07-04T21:58:28.189920","CLASSIFICATION_TYPE":"U","MEAN_MOTION":13.18686471,"ECCENTRICITY":0.0002019,"INCLINATION":87.9186,"RA_OF_ASC_NODE":331.9187,"ARG_OF_PERICENTER":97.3601,"MEAN_ANOMALY":262.776,"EPHEMERIS_TYPE":0,"NORAD_CAT_ID":50480,"ELEMENT_SET_NO":999,"REV_AT_EPOCH":22394,"BSTAR":0.000098247,"MEAN_MOTION_DOT":5.2e-7,"MEAN_MOTION_DDOT":0},{"OBJECT_NAME":"ONEWEB-0401","OBJECT_ID":"2021-132N","EPOCH":"2026-07-05T08:10:20.489952","CLASSIFICATION_TYPE":"U","MEAN_MOTION":13.18686204,"ECCENTRICITY":0.0001628,"INCLINATION":87.9189,"RA_OF_ASC_NODE":331.8315,"ARG_OF_PERICENTER":99.9425,"MEAN_ANOMALY":260.1891,"EPHEMERIS_TYPE":0,"NORAD_CAT_ID":50481,"ELEMENT_SET_NO":999,"REV_AT_EPOCH":22400,"BSTAR":0.00015805,"MEAN_MOTION_DOT":7.5e-7,"MEAN_MOTION_DDOT":0},{"OBJECT_NAME":"ONEWEB-0402","OBJECT_ID":"2021-132P","EPOCH":"2026-07-05T09:06:10.882368","CLASSIFICATION_TYPE":"U","MEAN_MOTION":13.18686574,"ECCENTRICITY":0.0001377,"INCLINATION":87.9188,"RA_OF_ASC_NODE":331.8129,"ARG_OF_PERICENTER":100.668,"MEAN_ANOMALY":259.4607,"EPHEMERIS_TYPE":0,"NORAD_CAT_ID":50482,"ELEMENT_SET_NO":999,"REV_AT_EPOCH":22403,"BSTAR":-0.00013628,"MEAN_MOTION_DOT":-4.1e-7,"MEAN_MOTION_DDOT":0}]}
